{"fetched_at":"2026-07-24T07:06:11.280Z","source":"https://celestrak.org/NORAD/elements/gp.php?GROUP=qianfan&FORMAT=JSON","constellation":"qianfan","records":[{"OBJECT_NAME":"QIANFAN-129","OBJECT_ID":"2026-104C","EPOCH":"2026-07-23T20:14:30.231744","CLASSIFICATION_TYPE":"U","MEAN_MOTION":13.5690532,"ECCENTRICITY":0.0008772,"INCLINATION":88.9906,"RA_OF_ASC_NODE":337.692,"ARG_OF_PERICENTER":348.7731,"MEAN_ANOMALY":11.3227,"EPHEMERIS_TYPE":0,"NORAD_CAT_ID":69075,"ELEMENT_SET_NO":999,"REV_AT_EPOCH":1012,"BSTAR":0.00021072,"MEAN_MOTION_DOT":0.00000162,"MEAN_MOTION_DDOT":0},{"OBJECT_NAME":"QIANFAN-130","OBJECT_ID":"2026-104D","EPOCH":"2026-07-23T19:07:42.431232","CLASSIFICATION_TYPE":"U","MEAN_MOTION":13.51012955,"ECCENTRICITY":0.0001787,"INCLINATION":88.9908,"RA_OF_ASC_NODE":337.7594,"ARG_OF_PERICENTER":109.857,"MEAN_ANOMALY":250.2774,"EPHEMERIS_TYPE":0,"NORAD_CAT_ID":69076,"ELEMENT_SET_NO":999,"REV_AT_EPOCH":1008,"BSTAR":0.00010657,"MEAN_MOTION_DOT":8.1e-7,"MEAN_MOTION_DDOT":0},{"OBJECT_NAME":"QIANFAN-131","OBJECT_ID":"2026-104E","EPOCH":"2026-07-23T10:44:41.735328","CLASSIFICATION_TYPE":"U","MEAN_MOTION":13.51089526,"ECCENTRICITY":0.0009282,"INCLINATION":88.9891,"RA_OF_ASC_NODE":337.7597,"ARG_OF_PERICENTER":5.4899,"MEAN_ANOMALY":354.6352,"EPHEMERIS_TYPE":0,"NORAD_CAT_ID":69077,"ELEMENT_SET_NO":999,"REV_AT_EPOCH":1005,"BSTAR":-3.3203,"MEAN_MOTION_DOT":-0.02013715,"MEAN_MOTION_DDOT":0},{"OBJECT_NAME":"QIANFAN-132","OBJECT_ID":"2026-104F","EPOCH":"2026-07-23T19:19:28.883424","CLASSIFICATION_TYPE":"U","MEAN_MOTION":13.51022269,"ECCENTRICITY":0.0001851,"INCLINATION":88.9904,"RA_OF_ASC_NODE":337.7783,"ARG_OF_PERICENTER":105.0508,"MEAN_ANOMALY":255.0848,"EPHEMERIS_TYPE":0,"NORAD_CAT_ID":69078,"ELEMENT_SET_NO":999,"REV_AT_EPOCH":1007,"BSTAR":0.0001206,"MEAN_MOTION_DOT":9e-7,"MEAN_MOTION_DDOT":0},{"OBJECT_NAME":"QIANFAN-133","OBJECT_ID":"2026-104G","EPOCH":"2026-07-23T20:06:02.295648","CLASSIFICATION_TYPE":"U","MEAN_MOTION":13.57839295,"ECCENTRICITY":0.0008852,"INCLINATION":88.9906,"RA_OF_ASC_NODE":337.729,"ARG_OF_PERICENTER":343.2104,"MEAN_ANOMALY":16.8757,"EPHEMERIS_TYPE":0,"NORAD_CAT_ID":69079,"ELEMENT_SET_NO":999,"REV_AT_EPOCH":1009,"BSTAR":0.000036716,"MEAN_MOTION_DOT":3.9e-7,"MEAN_MOTION_DDOT":0},{"OBJECT_NAME":"QIANFAN-134","OBJECT_ID":"2026-104H","EPOCH":"2026-07-23T13:06:13.232736","CLASSIFICATION_TYPE":"U","MEAN_MOTION":13.49552167,"ECCENTRICITY":0.0009074,"INCLINATION":88.9904,"RA_OF_ASC_NODE":337.7764,"ARG_OF_PERICENTER":333.0977,"MEAN_ANOMALY":26.9702,"EPHEMERIS_TYPE":0,"NORAD_CAT_ID":69080,"ELEMENT_SET_NO":999,"REV_AT_EPOCH":1005,"BSTAR":-3.5628,"MEAN_MOTION_DOT":-0.02103473,"MEAN_MOTION_DDOT":0},{"OBJECT_NAME":"QIANFAN-135","OBJECT_ID":"2026-104J","EPOCH":"2026-07-23T16:10:06.269088","CLASSIFICATION_TYPE":"U","MEAN_MOTION":13.49158369,"ECCENTRICITY":0.0001711,"INCLINATION":88.9895,"RA_OF_ASC_NODE":337.7615,"ARG_OF_PERICENTER":288.8964,"MEAN_ANOMALY":71.2,"EPHEMERIS_TYPE":0,"NORAD_CAT_ID":69081,"ELEMENT_SET_NO":999,"REV_AT_EPOCH":1007,"BSTAR":-3.6423,"MEAN_MOTION_DOT":-0.02134596,"MEAN_MOTION_DDOT":0},{"OBJECT_NAME":"QIANFAN-136","OBJECT_ID":"2026-104K","EPOCH":"2026-07-23T19:49:00.174144","CLASSIFICATION_TYPE":"U","MEAN_MOTION":13.4992037,"ECCENTRICITY":0.0010741,"INCLINATION":88.9911,"RA_OF_ASC_NODE":337.744,"ARG_OF_PERICENTER":349.6053,"MEAN_ANOMALY":10.4874,"EPHEMERIS_TYPE":0,"NORAD_CAT_ID":69082,"ELEMENT_SET_NO":999,"REV_AT_EPOCH":1009,"BSTAR":0.000027414,"MEAN_MOTION_DOT":2.9e-7,"MEAN_MOTION_DDOT":0},{"OBJECT_NAME":"QIANFAN-137","OBJECT_ID":"2026-104L","EPOCH":"2026-07-23T18:45:28.607040","CLASSIFICATION_TYPE":"U","MEAN_MOTION":13.57833987,"ECCENTRICITY":0.0009815,"INCLINATION":88.9913,"RA_OF_ASC_NODE":337.6277,"ARG_OF_PERICENTER":354.8289,"MEAN_ANOMALY":5.2763,"EPHEMERIS_TYPE":0,"NORAD_CAT_ID":69083,"ELEMENT_SET_NO":999,"REV_AT_EPOCH":1015,"BSTAR":0.00010481,"MEAN_MOTION_DOT":8.8e-7,"MEAN_MOTION_DDOT":0},{"OBJECT_NAME":"QIANFAN-138","OBJECT_ID":"2026-104M","EPOCH":"2026-07-23T20:24:37.355040","CLASSIFICATION_TYPE":"U","MEAN_MOTION":13.51016092,"ECCENTRICITY":0.0001656,"INCLINATION":88.9901,"RA_OF_ASC_NODE":337.7456,"ARG_OF_PERICENTER":94.9289,"MEAN_ANOMALY":265.2052,"EPHEMERIS_TYPE":0,"NORAD_CAT_ID":69084,"ELEMENT_SET_NO":999,"REV_AT_EPOCH":1009,"BSTAR":0.0001197,"MEAN_MOTION_DOT":8.9e-7,"MEAN_MOTION_DDOT":0},{"OBJECT_NAME":"QIANFAN-139","OBJECT_ID":"2026-104N","EPOCH":"2026-07-23T14:44:48.084288","CLASSIFICATION_TYPE":"U","MEAN_MOTION":13.4814142,"ECCENTRICITY":0.0008917,"INCLINATION":88.9893,"RA_OF_ASC_NODE":337.749,"ARG_OF_PERICENTER":318.4291,"MEAN_ANOMALY":41.6179,"EPHEMERIS_TYPE":0,"NORAD_CAT_ID":69085,"ELEMENT_SET_NO":999,"REV_AT_EPOCH":1007,"BSTAR":-3.3043,"MEAN_MOTION_DOT":-0.01900453,"MEAN_MOTION_DDOT":0},{"OBJECT_NAME":"QIANFAN-140","OBJECT_ID":"2026-104P","EPOCH":"2026-07-23T20:18:46.476000","CLASSIFICATION_TYPE":"U","MEAN_MOTION":13.51025031,"ECCENTRICITY":0.0001661,"INCLINATION":88.9904,"RA_OF_ASC_NODE":337.7296,"ARG_OF_PERICENTER":90.2565,"MEAN_ANOMALY":269.8776,"EPHEMERIS_TYPE":0,"NORAD_CAT_ID":69086,"ELEMENT_SET_NO":999,"REV_AT_EPOCH":1010,"BSTAR":0.00016986,"MEAN_MOTION_DOT":0.00000122,"MEAN_MOTION_DDOT":0},{"OBJECT_NAME":"QIANFAN-141","OBJECT_ID":"2026-104Q","EPOCH":"2026-07-23T20:39:33.646176","CLASSIFICATION_TYPE":"U","MEAN_MOTION":13.54883643,"ECCENTRICITY":0.0007517,"INCLINATION":88.9904,"RA_OF_ASC_NODE":337.6951,"ARG_OF_PERICENTER":344.6366,"MEAN_ANOMALY":15.4558,"EPHEMERIS_TYPE":0,"NORAD_CAT_ID":69087,"ELEMENT_SET_NO":999,"REV_AT_EPOCH":1012,"BSTAR":0.000010267,"MEAN_MOTION_DOT":1.9e-7,"MEAN_MOTION_DDOT":0},{"OBJECT_NAME":"QIANFAN-142","OBJECT_ID":"2026-104R","EPOCH":"2026-07-23T15:19:48.258336","CLASSIFICATION_TYPE":"U","MEAN_MOTION":13.48210406,"ECCENTRICITY":0.0011995,"INCLINATION":88.9895,"RA_OF_ASC_NODE":337.7169,"ARG_OF_PERICENTER":337.7096,"MEAN_ANOMALY":22.353,"EPHEMERIS_TYPE":0,"NORAD_CAT_ID":69088,"ELEMENT_SET_NO":999,"REV_AT_EPOCH":1009,"BSTAR":-3.1982,"MEAN_MOTION_DOT":-0.01845534,"MEAN_MOTION_DDOT":0},{"OBJECT_NAME":"QIANFAN-143","OBJECT_ID":"2026-104S","EPOCH":"2026-07-23T13:41:37.379328","CLASSIFICATION_TYPE":"U","MEAN_MOTION":13.50544917,"ECCENTRICITY":0.0012051,"INCLINATION":88.9906,"RA_OF_ASC_NODE":337.7266,"ARG_OF_PERICENTER":344.6556,"MEAN_ANOMALY":15.4228,"EPHEMERIS_TYPE":0,"NORAD_CAT_ID":69089,"ELEMENT_SET_NO":999,"REV_AT_EPOCH":1008,"BSTAR":-2.6162,"MEAN_MOTION_DOT":-0.0158118,"MEAN_MOTION_DDOT":0},{"OBJECT_NAME":"QIANFAN-144","OBJECT_ID":"2026-104T","EPOCH":"2026-07-23T19:01:44.997024","CLASSIFICATION_TYPE":"U","MEAN_MOTION":13.51021375,"ECCENTRICITY":0.000167,"INCLINATION":88.9908,"RA_OF_ASC_NODE":337.7209,"ARG_OF_PERICENTER":100.7908,"MEAN_ANOMALY":259.3431,"EPHEMERIS_TYPE":0,"NORAD_CAT_ID":69090,"ELEMENT_SET_NO":999,"REV_AT_EPOCH":1010,"BSTAR":0.00010668,"MEAN_MOTION_DOT":8.1e-7,"MEAN_MOTION_DDOT":0}]}
