QIANFAN-129             
1 69075U 26104C   26204.84340546  .00000162  00000+0  21072-3 0  9991
2 69075  88.9906 337.6920 0008772 348.7731  11.3227 13.56905320 10120
QIANFAN-130             
1 69076U 26104D   26204.79701888  .00000081  00000+0  10657-3 0  9993
2 69076  88.9908 337.7594 0001787 109.8570 250.2774 13.51012955 10081
QIANFAN-131             
1 69077U 26104E   26204.44770527 -.02013715  00000+0 -33203+1 0  9993
2 69077  88.9891 337.7597 0009282   5.4899 354.6352 13.51089526 10055
QIANFAN-132             
1 69078U 26104F   26204.80519541  .00000090  00000+0  12060-3 0  9990
2 69078  88.9904 337.7783 0001851 105.0508 255.0848 13.51022269 10073
QIANFAN-133             
1 69079U 26104G   26204.83752657  .00000039  00000+0  36716-4 0  9999
2 69079  88.9906 337.7290 0008852 343.2104  16.8757 13.57839295 10090
QIANFAN-134             
1 69080U 26104H   26204.54598649 -.02103473  00000+0 -35628+1 0  9995
2 69080  88.9904 337.7764 0009074 333.0977  26.9702 13.49552167 10057
QIANFAN-135             
1 69081U 26104J   26204.67368367 -.02134596  00000+0 -36423+1 0  9996
2 69081  88.9895 337.7615 0001711 288.8964  71.2000 13.49158369 10077
QIANFAN-136             
1 69082U 26104K   26204.82569646  .00000029  00000+0  27414-4 0  9990
2 69082  88.9911 337.7440 0010741 349.6053  10.4874 13.49920370 10096
QIANFAN-137             
1 69083U 26104L   26204.78158110  .00000088  00000+0  10481-3 0  9996
2 69083  88.9913 337.6277 0009815 354.8289   5.2763 13.57833987 10157
QIANFAN-138             
1 69084U 26104M   26204.85043235  .00000089  00000+0  11970-3 0  9991
2 69084  88.9901 337.7456 0001656  94.9289 265.2052 13.51016092 10098
QIANFAN-139             
1 69085U 26104N   26204.61444542 -.01900453  00000+0 -33043+1 0  9991
2 69085  88.9893 337.7490 0008917 318.4291  41.6179 13.48141420 10075
QIANFAN-140             
1 69086U 26104P   26204.84637125  .00000122  00000+0  16986-3 0  9999
2 69086  88.9904 337.7296 0001661  90.2565 269.8776 13.51025031 10105
QIANFAN-141             
1 69087U 26104Q   26204.86080609  .00000019  00000+0  10267-4 0  9993
2 69087  88.9904 337.6951 0007517 344.6366  15.4558 13.54883643 10123
QIANFAN-142             
1 69088U 26104R   26204.63875299 -.01845534  00000+0 -31982+1 0  9991
2 69088  88.9895 337.7169 0011995 337.7096  22.3530 13.48210406 10090
QIANFAN-143             
1 69089U 26104S   26204.57057152 -.01581180  00000+0 -26162+1 0  9993
2 69089  88.9906 337.7266 0012051 344.6556  15.4228 13.50544917 10080
QIANFAN-144             
1 69090U 26104T   26204.79288191  .00000081  00000+0  10668-3 0  9998
2 69090  88.9908 337.7209 0001670 100.7908 259.3431 13.51021375 10105
